{
	"meta": {
		"colour": "orange",
		"from": "Dhoby Ghaut",
		"name": "MRT Circle Line (CCL)",
		"network": "Singapore Rail",
		"operator": "SMRT Trains",
		"public_transport:version": "1",
		"ref": "Circle Line",
		"route": "subway",
		"to": "HarbourFront",
		"type": "route",
		"via": "Promenade",
		"wheelchair": "yes"
	},
	"ways": [
		{
			"id": "35308148",
			"visible": "true",
			"meta": {
				"alt_name": "Circle Line Stage 1",
				"gauge": "1435",
				"layer": "-2",
				"name": "Circle Line MRT",
				"railway": "subway",
				"ref": "CCL",
				"tunnel": "yes"
			},
			"coords": [
				[
					1.3033282,
					103.8763839
				],
				[
					1.3028989,
					103.8754768
				],
				[
					1.3023989,
					103.874348
				],
				[
					1.3020687,
					103.8733713
				],
				[
					1.3018903,
					103.8724709
				],
				[
					1.3016449,
					103.8706348
				],
				[
					1.3013875,
					103.8681886
				],
				[
					1.3011837,
					103.8670621
				],
				[
					1.3004436,
					103.8651309
				],
				[
					1.3001059,
					103.8644319
				],
				[
					1.2996821,
					103.8635752
				],
				[
					1.2991136,
					103.8622663
				],
				[
					1.298706,
					103.8614831
				],
				[
					1.2982233,
					103.861011
				],
				[
					1.2975154,
					103.8607857
				],
				[
					1.2969134,
					103.8607807
				],
				[
					1.2959486,
					103.8609781
				],
				[
					1.2927823,
					103.8610819
				],
				[
					1.2923075,
					103.8610975
				],
				[
					1.292097,
					103.8610474
				],
				[
					1.2918906,
					103.8609059
				],
				[
					1.2916884,
					103.8606261
				],
				[
					1.2915109,
					103.8602498
				],
				[
					1.2915249,
					103.8594202
				],
				[
					1.291619,
					103.8587332
				],
				[
					1.2924561,
					103.857356
				],
				[
					1.2926364,
					103.8570187
				],
				[
					1.2937467,
					103.8551328
				],
				[
					1.2955662,
					103.8523007
				],
				[
					1.2982652,
					103.8485599
				],
				[
					1.2983842,
					103.8479969
				],
				[
					1.2984408,
					103.8474341
				],
				[
					1.2984519,
					103.8470867
				],
				[
					1.2985078,
					103.8460375
				]
			]
		},
		{
			"id": "140918628",
			"visible": "true",
			"meta": {
				"gauge": "1435",
				"layer": "-2",
				"name": "Circle Line Extension",
				"railway": "subway",
				"tunnel": "yes"
			},
			"coords": [
				[
					1.2751712,
					103.8547506
				],
				[
					1.277114,
					103.8560342
				],
				[
					1.278664,
					103.857032
				],
				[
					1.2792485,
					103.8573914
				],
				[
					1.2799672,
					103.8580351
				],
				[
					1.280264,
					103.858305
				],
				[
					1.2808307,
					103.8587218
				],
				[
					1.2812616,
					103.8590238
				],
				[
					1.28348,
					103.8602882
				],
				[
					1.2841845,
					103.8607189
				],
				[
					1.2850568,
					103.8610177
				],
				[
					1.2857271,
					103.8611465
				],
				[
					1.2891059,
					103.8612055
				],
				[
					1.2914603,
					103.861227
				],
				[
					1.2927823,
					103.8610819
				]
			]
		},
		{
			"id": "35308147",
			"visible": "true",
			"meta": {
				"alt_name": "Circle Line Stage 3",
				"electrified": "yes",
				"gauge": "1435",
				"layer": "5",
				"name": "Circle Line MRT",
				"railway": "subway",
				"tunnel": "yes"
			},
			"coords": [
				[
					1.3481835,
					103.839196
				],
				[
					1.349668,
					103.8394964
				],
				[
					1.3509769,
					103.8397853
				],
				[
					1.3519186,
					103.8400723
				],
				[
					1.3527836,
					103.8407471
				],
				[
					1.3531746,
					103.8415276
				],
				[
					1.3532116,
					103.8428526
				],
				[
					1.3526801,
					103.8447028
				],
				[
					1.3522784,
					103.8457012
				],
				[
					1.3517352,
					103.8469929
				],
				[
					1.3514749,
					103.8482247
				],
				[
					1.3513974,
					103.8487031
				],
				[
					1.3512204,
					103.849526
				],
				[
					1.350894,
					103.8511828
				],
				[
					1.3504843,
					103.853497
				],
				[
					1.3503577,
					103.8544594
				],
				[
					1.350255,
					103.8557217
				],
				[
					1.3502162,
					103.8573744
				],
				[
					1.3505658,
					103.8600609
				],
				[
					1.3511238,
					103.8617084
				],
				[
					1.3513284,
					103.8629394
				],
				[
					1.3514854,
					103.863397
				],
				[
					1.3516158,
					103.8641727
				],
				[
					1.3518732,
					103.8652628
				],
				[
					1.352062,
					103.8667476
				],
				[
					1.3520878,
					103.8677776
				],
				[
					1.352062,
					103.8684643
				],
				[
					1.3517703,
					103.86952
				],
				[
					1.3513335,
					103.8704328
				],
				[
					1.3512898,
					103.8705242
				],
				[
					1.3513308,
					103.8704592
				],
				[
					1.3510613,
					103.8709245
				],
				[
					1.3509031,
					103.871119
				],
				[
					1.3509327,
					103.8712178
				],
				[
					1.3509957,
					103.8711992
				],
				[
					1.3510386,
					103.8713405
				],
				[
					1.3509294,
					103.8715542
				],
				[
					1.3506719,
					103.8724983
				],
				[
					1.3503974,
					103.8730734
				],
				[
					1.3495994,
					103.8740003
				],
				[
					1.3491961,
					103.8743866
				],
				[
					1.3488014,
					103.8746612
				],
				[
					1.3482865,
					103.8747127
				],
				[
					1.3473941,
					103.8747299
				],
				[
					1.3469651,
					103.8747728
				],
				[
					1.3463079,
					103.8748941
				],
				[
					1.3458145,
					103.8753447
				],
				[
					1.3451817,
					103.8757953
				],
				[
					1.3445381,
					103.8764605
				],
				[
					1.3432067,
					103.8790386
				],
				[
					1.3417017,
					103.8821235
				]
			]
		},
		{
			"id": "33739391",
			"visible": "true",
			"meta": {
				"alt_name": "Circle Line Stage 4",
				"electrified": "yes",
				"gauge": "1435",
				"layer": "-3",
				"name": "Circle Line MRT",
				"railway": "subway",
				"tunnel": "yes"
			},
			"coords": [
				[
					1.2930108,
					103.7843461
				],
				[
					1.2933024,
					103.7844147
				],
				[
					1.2960326,
					103.7850508
				],
				[
					1.2972088,
					103.7854806
				],
				[
					1.2989221,
					103.7868682
				],
				[
					1.30119,
					103.7880887
				],
				[
					1.3013702,
					103.7881668
				],
				[
					1.3026604,
					103.7887264
				],
				[
					1.3042748,
					103.7893788
				],
				[
					1.3059068,
					103.7901762
				],
				[
					1.3066749,
					103.7905904
				],
				[
					1.3089424,
					103.791813
				],
				[
					1.3098434,
					103.7924567
				],
				[
					1.3113021,
					103.7946025
				],
				[
					1.3123747,
					103.7961474
				],
				[
					1.3132328,
					103.7976495
				],
				[
					1.3138764,
					103.7985936
				],
				[
					1.3143912,
					103.7998382
				],
				[
					1.314949,
					103.8017694
				],
				[
					1.315192,
					103.8045308
				],
				[
					1.3155975,
					103.8055656
				],
				[
					1.3157822,
					103.8057339
				],
				[
					1.3165969,
					103.8065802
				],
				[
					1.317955,
					103.8081803
				],
				[
					1.3192218,
					103.8095782
				],
				[
					1.3195457,
					103.8107176
				],
				[
					1.3195826,
					103.811597
				],
				[
					1.3200717,
					103.8126269
				],
				[
					1.3205265,
					103.8136569
				],
				[
					1.3210481,
					103.8141816
				],
				[
					1.3221833,
					103.8152069
				],
				[
					1.322585,
					103.8157246
				],
				[
					1.3234611,
					103.8167726
				],
				[
					1.3241546,
					103.8175176
				],
				[
					1.3248057,
					103.8178727
				],
				[
					1.3255498,
					103.8181232
				],
				[
					1.3285495,
					103.8187209
				],
				[
					1.330137,
					103.8193217
				],
				[
					1.3311237,
					103.8199225
				],
				[
					1.3316386,
					103.8203517
				],
				[
					1.3325895,
					103.8213939
				],
				[
					1.333305,
					103.8224668
				],
				[
					1.3336814,
					103.8242563
				],
				[
					1.3336903,
					103.8249036
				],
				[
					1.3337697,
					103.8306764
				],
				[
					1.3338359,
					103.8355581
				],
				[
					1.3338992,
					103.8369325
				],
				[
					1.3343582,
					103.8383272
				],
				[
					1.3349364,
					103.8390407
				],
				[
					1.3354995,
					103.8394248
				],
				[
					1.3361012,
					103.8397531
				],
				[
					1.3366154,
					103.8397923
				],
				[
					1.3371303,
					103.8397494
				],
				[
					1.3383591,
					103.8396315
				],
				[
					1.3402622,
					103.839449
				],
				[
					1.3425361,
					103.8390628
				],
				[
					1.3451532,
					103.8388482
				],
				[
					1.3466819,
					103.8390243
				],
				[
					1.3481835,
					103.839196
				]
			]
		},
		{
			"id": "377679053",
			"visible": "true",
			"meta": {
				"alt_name": "Circle Line Stage 2",
				"gauge": "1435",
				"layer": "-2",
				"name": "Circle Line MRT",
				"railway": "subway",
				"ref": "CCL",
				"tunnel": "yes"
			},
			"coords": [
				[
					1.3417017,
					103.8821235
				],
				[
					1.341297,
					103.8831362
				],
				[
					1.3411443,
					103.8835186
				],
				[
					1.3406002,
					103.884964
				],
				[
					1.3398526,
					103.8860033
				],
				[
					1.3384702,
					103.8869505
				],
				[
					1.3365567,
					103.8879805
				],
				[
					1.3349435,
					103.8888044
				],
				[
					1.3333218,
					103.8890705
				],
				[
					1.3320347,
					103.8892422
				],
				[
					1.3296492,
					103.88974
				],
				[
					1.3234453,
					103.8908815
				],
				[
					1.3214288,
					103.8912935
				],
				[
					1.318045,
					103.8923178
				],
				[
					1.3154815,
					103.8926396
				],
				[
					1.3132505,
					103.892822
				],
				[
					1.312253,
					103.8929937
				],
				[
					1.3115987,
					103.8930473
				],
				[
					1.3108908,
					103.893058
				],
				[
					1.3104188,
					103.8930151
				],
				[
					1.3101185,
					103.8929293
				],
				[
					1.3096787,
					103.8926611
				],
				[
					1.3092956,
					103.8922291
				],
				[
					1.3091154,
					103.8915939
				],
				[
					1.3083699,
					103.8879952
				],
				[
					1.3081286,
					103.8868303
				],
				[
					1.3062065,
					103.8823414
				],
				[
					1.3033282,
					103.8763839
				]
			]
		},
		{
			"id": "377679054",
			"visible": "true",
			"meta": {
				"alt_name": "Circle Line Stage 5",
				"electrified": "yes",
				"gauge": "1435",
				"layer": "-3",
				"name": "Circle Line MRT",
				"railway": "subway",
				"tunnel": "yes"
			},
			"coords": [
				[
					1.2653828,
					103.8233994
				],
				[
					1.2652892,
					103.82206
				],
				[
					1.2653139,
					103.8207135
				],
				[
					1.2657805,
					103.819193
				],
				[
					1.2668531,
					103.8174764
				],
				[
					1.2683547,
					103.8148585
				],
				[
					1.2705858,
					103.811082
				],
				[
					1.2706556,
					103.8090512
				],
				[
					1.2710739,
					103.8066909
				],
				[
					1.2721733,
					103.8043443
				],
				[
					1.2722834,
					103.8031568
				],
				[
					1.2724308,
					103.8015679
				],
				[
					1.2734175,
					103.799409
				],
				[
					1.275434,
					103.7937442
				],
				[
					1.2768721,
					103.7895774
				],
				[
					1.2782228,
					103.7855903
				],
				[
					1.2786805,
					103.7846922
				],
				[
					1.2793717,
					103.7838589
				],
				[
					1.2797674,
					103.7834445
				],
				[
					1.2816333,
					103.7824289
				],
				[
					1.2824165,
					103.7818975
				],
				[
					1.2831845,
					103.7814821
				],
				[
					1.2841437,
					103.78117
				],
				[
					1.284916,
					103.7808696
				],
				[
					1.2864176,
					103.7809983
				],
				[
					1.2877048,
					103.7811271
				],
				[
					1.2887774,
					103.7814704
				],
				[
					1.2897396,
					103.7822847
				],
				[
					1.2914136,
					103.783828
				],
				[
					1.2930108,
					103.7843461
				]
			]
		}
	],
	"stops": [
		{
			"meta": {
				"name": "Marina Bay",
				"name:en": "Marina Bay",
				"name:hi": "மரீனா பே",
				"name:ms": "Teluk Marina",
				"name:zh": "滨海湾",
				"network": "MRT",
				"public_transport": "station",
				"railway": "station",
				"ref": "NS27;CE2;TE20",
				"station": "subway"
			},
			"coord": [
				1.2751712,
				103.8547506
			]
		},
		{
			"meta": {
				"name": "Bayfront",
				"name:en": "Bayfront",
				"name:hi": "பேஃபிரண்ட்",
				"name:ms": "Bayfront",
				"name:zh": "海湾舫",
				"network": "MRT",
				"public_transport": "station",
				"railway": "station",
				"ref": "CE1;DT16",
				"station": "subway"
			},
			"coord": [
				1.2825349,
				103.8597296
			]
		},
		{
			"meta": {
				"name": "Dhoby Ghaut",
				"name:en": "Dhoby Ghaut",
				"name:hi": "டோபி காட்",
				"name:ms": "Dhoby Ghaut",
				"name:zh": "多美歌",
				"network": "MRT",
				"public_transport": "station",
				"railway": "station",
				"ref": "NE6;NS24;CC1",
				"station": "subway",
				"wheelchair": "yes"
			},
			"coord": [
				1.2987856,
				103.8450197
			]
		},
		{
			"meta": {
				"name": "Bras Basah",
				"name:en": "Bras Basah",
				"name:hi": "பிராஸ் பாசா",
				"name:ms": "Bras Basah",
				"name:zh": "百胜",
				"network": "MRT",
				"public_transport": "station",
				"railway": "station",
				"ref": "CC2",
				"station": "subway",
				"wheelchair": "yes"
			},
			"coord": [
				1.2968963,
				103.8505497
			]
		},
		{
			"meta": {
				"name": "Esplanade",
				"name:en": "Esplanade",
				"name:hi": "எஸ்பிளனேட்",
				"name:ms": "Esplanade",
				"name:zh": "滨海中心",
				"network": "MRT",
				"public_transport": "station",
				"railway": "station",
				"ref": "CC3",
				"station": "subway"
			},
			"coord": [
				1.293258,
				103.8559742
			]
		},
		{
			"meta": {
				"name": "Promenade",
				"name:en": "Promenade",
				"name:hi": "புரொமனெட்",
				"name:ms": "Promenade",
				"name:zh": "宝门廊",
				"network": "MRT",
				"public_transport": "station",
				"railway": "station",
				"ref": "CC4;DT15",
				"station": "subway"
			},
			"coord": [
				1.2927806,
				103.8610839
			]
		},
		{
			"meta": {
				"name": "Nicoll Highway",
				"name:en": "Nicoll Highway",
				"name:hi": "நிக்கல் நெடுஞ்சாலை",
				"name:ms": "Nicoll Highway",
				"name:zh": "尼诰大道",
				"network": "MRT",
				"public_transport": "station",
				"railway": "station",
				"ref": "CC5",
				"station": "subway"
			},
			"coord": [
				1.2996713,
				103.8635001
			]
		},
		{
			"meta": {
				"name": "Stadium",
				"name:en": "Stadium",
				"name:hi": "ஸ்டேடியம்",
				"name:ms": "Stadium",
				"name:zh": "体育场",
				"network": "MRT",
				"public_transport": "station",
				"railway": "station",
				"ref": "CC6",
				"station": "subway"
			},
			"coord": [
				1.3028989,
				103.8754768
			]
		},
		{
			"meta": {
				"name": "Mountbatten",
				"name:en": "Mountbatten",
				"name:hi": "மவுண்ட்பேட்டன்",
				"name:ms": "Mountbatten",
				"name:zh": "蒙巴登",
				"network": "MRT",
				"public_transport": "station",
				"railway": "station",
				"ref": "CC7",
				"station": "subway"
			},
			"coord": [
				1.3062494,
				103.8824959
			]
		},
		{
			"meta": {
				"name": "Dakota",
				"name:en": "Dakota",
				"name:hi": "டகோட்டா",
				"name:ms": "Dakota",
				"name:zh": "达科达",
				"network": "MRT",
				"public_transport": "station",
				"railway": "station",
				"ref": "CC8",
				"station": "subway"
			},
			"coord": [
				1.3084379,
				103.8883198
			]
		},
		{
			"meta": {
				"name": "Paya Lebar",
				"name:en": "Paya Lebar",
				"name:hi": "பாய லேபார்",
				"name:ms": "Paya Lebar",
				"name:zh": "巴耶利峇",
				"network": "MRT",
				"public_transport": "station",
				"railway": "station",
				"ref": "EW8;CC9",
				"station": "subway",
				"wheelchair": "yes"
			},
			"coord": [
				1.3180497,
				103.8923182
			]
		},
		{
			"meta": {
				"name": "MacPherson",
				"name:en": "MacPherson",
				"name:hi": "மெக்பர்சன்",
				"name:ms": "MacPherson",
				"name:zh": "麦波申",
				"network": "MRT",
				"public_transport": "station",
				"railway": "station",
				"ref": "CC10;DT26",
				"state": "proposed",
				"station": "subway"
			},
			"coord": [
				1.3265672,
				103.8903059
			]
		},
		{
			"meta": {
				"name": "Tai Seng",
				"name:en": "Tai Seng",
				"name:hi": "தை செங்",
				"name:ms": "Tai Seng",
				"name:zh": "大成",
				"network": "MRT",
				"public_transport": "station",
				"railway": "station",
				"ref": "CC11",
				"station": "subway"
			},
			"coord": [
				1.334874,
				103.8881723
			]
		},
		{
			"meta": {
				"name": "Bartley",
				"name:en": "Bartley",
				"name:hi": "பார்ட்லி",
				"name:ms": "Bartley",
				"name:zh": "巴特礼",
				"network": "MRT",
				"public_transport": "station",
				"railway": "station",
				"ref": "CC12",
				"station": "subway"
			},
			"coord": [
				1.3424382,
				103.8804493
			]
		},
		{
			"meta": {
				"name": "Serangoon",
				"name:en": "Serangoon",
				"name:hi": "சிராங்கூன்",
				"name:ms": "Serangoon",
				"name:zh": "实龙岗",
				"network": "MRT",
				"public_transport": "station",
				"railway": "station",
				"ref": "NE12;CC13",
				"station": "subway",
				"wheelchair": "yes"
			},
			"coord": [
				1.3498066,
				103.8737713
			]
		},
		{
			"meta": {
				"name": "Lorong Chuan",
				"name:en": "Lorong Chuan",
				"name:hi": "லோரோங் சுவான்",
				"name:ms": "Lorong Chuan",
				"name:zh": "罗弄泉",
				"network": "MRT",
				"public_transport": "station",
				"railway": "station",
				"ref": "CC14",
				"station": "subway"
			},
			"coord": [
				1.3514878,
				103.8633948
			]
		},
		{
			"meta": {
				"name": "Bishan",
				"name:en": "Bishan",
				"name:hi": "பீஷான்",
				"name:ms": "Bishan",
				"name:zh": "碧山",
				"network": "MRT",
				"public_transport": "station",
				"railway": "station",
				"ref": "NS17;CC15",
				"station": "subway"
			},
			"coord": [
				1.3514551,
				103.8482628
			]
		},
		{
			"meta": {
				"name": "Marymount",
				"name:en": "Marymount",
				"name:hi": "மேரிமவுண்ட்",
				"name:ms": "Marymount",
				"name:zh": "玛丽蒙",
				"network": "MRT",
				"public_transport": "station",
				"railway": "station",
				"ref": "CC16",
				"station": "subway",
				"wheelchair": "yes"
			},
			"coord": [
				1.3486136,
				103.8392382
			]
		},
		{
			"meta": {
				"name": "Caldecott",
				"name:en": "Caldecott",
				"name:hi": "கால்டிகாட்",
				"name:ms": "Caldecott",
				"name:zh": "加利谷",
				"network": "MRT",
				"public_transport": "station",
				"railway": "station",
				"ref": "CC17;TE9",
				"station": "subway"
			},
			"coord": [
				1.3376796,
				103.8399908
			]
		},
		{
			"meta": {
				"name": "Bukit Brown",
				"name:en": "Bukit Brown",
				"name:hi": "புக்கிட் பிரவுன்",
				"name:ms": "Bukit Brown",
				"name:zh": "武吉布朗",
				"proposed": "station",
				"railway": "proposed",
				"ref": "CC18"
			},
			"coord": [
				1.3337697,
				103.8306764
			]
		},
		{
			"meta": {
				"name": "Botanic Gardens",
				"name:en": "Botanic Gardens",
				"name:hi": "பூ மலை",
				"name:ms": "Botanic Gardens",
				"name:ta": "பூ மலை",
				"name:zh": "植物园",
				"network": "MRT",
				"public_transport": "station",
				"railway": "station",
				"ref": "CC19;DT9",
				"station": "subway",
				"wheelchair": "yes"
			},
			"coord": [
				1.322585,
				103.8157246
			]
		},
		{
			"meta": {
				"name": "Farrer Road",
				"name:en": "Farrer Road",
				"name:hi": "பேரர் சாலை",
				"name:ms": "Farrer Road",
				"name:zh": "花拉路",
				"network": "MRT",
				"public_transport": "station",
				"railway": "station",
				"ref": "CC20",
				"station": "subway"
			},
			"coord": [
				1.3176276,
				103.8077853
			]
		},
		{
			"meta": {
				"name": "Holland Village",
				"name:en": "Holland Village",
				"name:hi": "ஹாலந்து வில்லேஜ்",
				"name:ms": "Holland Village",
				"name:zh": "荷兰村",
				"network": "MRT",
				"public_transport": "station",
				"railway": "station",
				"ref": "CC21",
				"station": "subway",
				"wheelchair": "yes"
			},
			"coord": [
				1.3121173,
				103.795744
			]
		},
		{
			"meta": {
				"name": "Buona Vista",
				"name:en": "Buona Vista",
				"name:hi": "புவன விஸ்தா",
				"name:ms": "Buona Vista",
				"name:zh": "波那维斯达",
				"network": "MRT",
				"public_transport": "station",
				"railway": "station",
				"ref": "EW21;CC22",
				"station": "subway",
				"wheelchair": "yes"
			},
			"coord": [
				1.3071896,
				103.7908384
			]
		},
		{
			"meta": {
				"name": "one-north",
				"name:en": "one-north",
				"name:hi": "ஒன்-நார்த்",
				"name:ms": "one-north",
				"name:zh": "纬壹",
				"network": "MRT",
				"public_transport": "station",
				"railway": "station",
				"ref": "CC23",
				"station": "subway"
			},
			"coord": [
				1.2996073,
				103.7872407
			]
		},
		{
			"meta": {
				"name": "Kent Ridge",
				"name:en": "Kent Ridge",
				"name:hi": "கெண்ட் ரிஜ்",
				"name:ms": "Kent Ridge",
				"name:zh": "肯特岗",
				"network": "MRT",
				"public_transport": "station",
				"railway": "station",
				"ref": "CC24",
				"station": "subway"
			},
			"coord": [
				1.2933012,
				103.7844127
			]
		},
		{
			"meta": {
				"name": "Haw Par Villa",
				"name:en": "Haw Par Villa",
				"name:hi": "ஹா பர் வில்லா",
				"name:ms": "Haw Par Villa",
				"name:zh": "虎豹别墅",
				"network": "MRT",
				"public_transport": "station",
				"railway": "station",
				"ref": "CC25",
				"station": "subway"
			},
			"coord": [
				1.2826539,
				103.7817717
			]
		},
		{
			"meta": {
				"name": "Pasir Panjang",
				"name:en": "Pasir Panjang",
				"name:hi": "பாசிர் பாஞ்சாங்",
				"name:ms": "Pasir Panjang",
				"name:zh": "巴西班让",
				"network": "MRT",
				"public_transport": "station",
				"railway": "station",
				"ref": "CC26",
				"station": "subway"
			},
			"coord": [
				1.276177,
				103.7916138
			]
		},
		{
			"meta": {
				"name": "Labrador Park",
				"name:en": "Labrador Park",
				"name:hi": "லாப்ரடார் பூங்கா",
				"name:ms": "Taman Labrador",
				"name:zh": "拉柏多公园",
				"network": "MRT",
				"public_transport": "station",
				"railway": "station",
				"ref": "CC27",
				"station": "subway"
			},
			"coord": [
				1.2723277,
				103.8027822
			]
		},
		{
			"meta": {
				"name": "Telok Blangah",
				"name:en": "Telok Blangah",
				"name:hi": "தெலுக் பிளாங்கா",
				"name:ms": "Telok Blangah",
				"name:zh": "直落布兰雅",
				"network": "MRT",
				"public_transport": "station",
				"railway": "station",
				"ref": "CC28",
				"station": "subway"
			},
			"coord": [
				1.2705858,
				103.8098632
			]
		},
		{
			"meta": {
				"name": "HarbourFront",
				"name:en": "HarbourFront",
				"name:hi": "துறைமுகம்",
				"name:ms": "HarbourFront",
				"name:zh": "港湾",
				"network": "MRT",
				"public_transport": "station",
				"railway": "station",
				"ref": "NE1;CC29",
				"station": "subway",
				"wheelchair": "yes"
			},
			"coord": [
				1.2653951,
				103.8224032
			]
		}
	]
}