{
	"meta": {
		"colour": "blue",
		"from": "Bukit Panjang",
		"name": "MRT Downtown Line (DTL)",
		"network": "Singapore Rail",
		"operator": "SBS Transit",
		"public_transport:version": "1",
		"ref": "Downtown Line",
		"route": "subway",
		"to": "Expo",
		"type": "route",
		"wheelchair": "yes"
	},
	"ways": [
		{
			"id": "203845606",
			"visible": "true",
			"meta": {
				"alt_name": "Downtown Line Stage 2",
				"colour": "#0354A6",
				"layer": "-2",
				"name": "Downtown Line MRT",
				"railway": "subway",
				"ref": "DTL",
				"tunnel": "yes"
			},
			"coords": [
				[
					1.3008052,
					103.8557942
				],
				[
					1.3010947,
					103.8554736
				],
				[
					1.3017222,
					103.854795
				],
				[
					1.301985,
					103.8545724
				],
				[
					1.3020654,
					103.8545134
				],
				[
					1.3023604,
					103.8542693
				],
				[
					1.3031215,
					103.853694
				],
				[
					1.3032304,
					103.853624
				]
			]
		},
		{
			"id": "251603805",
			"visible": "true",
			"meta": {
				"alt_name": "Downtown Line Stage 1",
				"colour": "#0354A6",
				"layer": "-2",
				"name": "Downtown Line MRT",
				"railway": "subway",
				"ref": "DTL",
				"tunnel": "yes"
			},
			"coords": [
				[
					1.2851518,
					103.8438571
				],
				[
					1.2848947,
					103.844147
				],
				[
					1.2835885,
					103.8462224
				],
				[
					1.2821736,
					103.8486744
				],
				[
					1.2809821,
					103.8507392
				],
				[
					1.2803842,
					103.8515205
				],
				[
					1.2800819,
					103.8519406
				],
				[
					1.2798014,
					103.8523248
				],
				[
					1.2791743,
					103.8532304
				],
				[
					1.2786621,
					103.8540673
				],
				[
					1.2784861,
					103.854508
				],
				[
					1.2784136,
					103.8548674
				],
				[
					1.2783943,
					103.8554464
				],
				[
					1.2785161,
					103.8560653
				],
				[
					1.2787911,
					103.8566575
				],
				[
					1.2790296,
					103.8569834
				],
				[
					1.2793766,
					103.8573173
				],
				[
					1.2799588,
					103.8578567
				],
				[
					1.2803897,
					103.8582459
				],
				[
					1.2809941,
					103.8586333
				],
				[
					1.281458,
					103.8589234
				],
				[
					1.2829825,
					103.8598856
				],
				[
					1.2838513,
					103.8603791
				],
				[
					1.2843233,
					103.8606527
				],
				[
					1.2851599,
					103.8609584
				],
				[
					1.285841,
					103.8610711
				],
				[
					1.2866508,
					103.8610765
				],
				[
					1.2879638,
					103.861129
				],
				[
					1.2904586,
					103.8611408
				],
				[
					1.2913124,
					103.8611652
				],
				[
					1.2923153,
					103.8611223
				],
				[
					1.2927823,
					103.8610819
				],
				[
					1.2939613,
					103.8610086
				],
				[
					1.2943294,
					103.8609453
				],
				[
					1.2948769,
					103.8608045
				],
				[
					1.2952227,
					103.8606983
				],
				[
					1.2956465,
					103.8604777
				],
				[
					1.2960169,
					103.8601506
				],
				[
					1.2964462,
					103.8597541
				],
				[
					1.2969523,
					103.8592488
				],
				[
					1.2979812,
					103.8581608
				],
				[
					1.2985285,
					103.8576998
				],
				[
					1.2991077,
					103.8572492
				],
				[
					1.2996601,
					103.8567771
				],
				[
					1.3002903,
					103.856348
				],
				[
					1.3008052,
					103.8557942
				]
			]
		},
		{
			"id": "380508287",
			"visible": "true",
			"meta": {
				"alt_name": "Downtown Line Stage 2",
				"colour": "#0354A6",
				"layer": "-2",
				"name": "Downtown Line MRT",
				"railway": "subway",
				"ref": "DTL",
				"tunnel": "yes"
			},
			"coords": [
				[
					1.3032304,
					103.853624
				],
				[
					1.3039839,
					103.8526118
				],
				[
					1.3042971,
					103.8521079
				],
				[
					1.3052506,
					103.8507885
				],
				[
					1.3082131,
					103.8474466
				],
				[
					1.3100679,
					103.8446015
				],
				[
					1.3131468,
					103.8384784
				],
				[
					1.3135399,
					103.8380452
				],
				[
					1.315931,
					103.8360102
				],
				[
					1.3171975,
					103.8348962
				],
				[
					1.3200483,
					103.8259322
				],
				[
					1.3202201,
					103.8254214
				],
				[
					1.3223064,
					103.8188839
				],
				[
					1.322585,
					103.8157246
				],
				[
					1.3227908,
					103.8136507
				],
				[
					1.3232548,
					103.8112314
				],
				[
					1.326052,
					103.8069722
				],
				[
					1.3288136,
					103.8028202
				],
				[
					1.3289203,
					103.8026598
				],
				[
					1.3306968,
					103.7972028
				],
				[
					1.3343495,
					103.7881548
				],
				[
					1.3357959,
					103.7841186
				],
				[
					1.3382293,
					103.7779522
				],
				[
					1.3388031,
					103.7772101
				],
				[
					1.3406787,
					103.7761283
				],
				[
					1.3417616,
					103.7759044
				],
				[
					1.3441413,
					103.7753485
				],
				[
					1.3442917,
					103.7752326
				],
				[
					1.3444075,
					103.7750883
				],
				[
					1.3446323,
					103.7747485
				],
				[
					1.3450903,
					103.7739784
				],
				[
					1.3459895,
					103.772443
				],
				[
					1.3463345,
					103.7719998
				],
				[
					1.3465419,
					103.7718062
				],
				[
					1.3466836,
					103.7716994
				],
				[
					1.3489404,
					103.7701782
				],
				[
					1.3493788,
					103.7700787
				],
				[
					1.3522834,
					103.7696936
				],
				[
					1.3537815,
					103.7692879
				],
				[
					1.3545485,
					103.7690291
				],
				[
					1.3559182,
					103.7684249
				],
				[
					1.3571595,
					103.7675468
				],
				[
					1.3584804,
					103.7672908
				],
				[
					1.3610909,
					103.7670053
				],
				[
					1.3619287,
					103.7670162
				]
			]
		},
		{
			"id": "391040073",
			"visible": "true",
			"meta": {
				"alt_name": "Downtown Line Stage 2",
				"colour": "#0354A6",
				"layer": "-2",
				"name": "Downtown Line MRT",
				"railway": "subway",
				"ref": "DTL",
				"tunnel": "yes"
			},
			"coords": [
				[
					1.3619287,
					103.7670162
				],
				[
					1.3625069,
					103.7670978
				],
				[
					1.3625923,
					103.7671108
				],
				[
					1.3626971,
					103.7671336
				],
				[
					1.3634738,
					103.7673735
				],
				[
					1.3635623,
					103.7673881
				],
				[
					1.3636561,
					103.7673896
				],
				[
					1.3638588,
					103.7673843
				],
				[
					1.3645927,
					103.7672335
				],
				[
					1.3687857,
					103.7651185
				],
				[
					1.3699611,
					103.7643397
				],
				[
					1.3710559,
					103.7635276
				],
				[
					1.3717036,
					103.7630472
				],
				[
					1.3724034,
					103.7627953
				],
				[
					1.3781284,
					103.7622165
				],
				[
					1.3790119,
					103.7618938
				],
				[
					1.3799369,
					103.7614047
				],
				[
					1.3800163,
					103.7613477
				],
				[
					1.3801214,
					103.7612914
				]
			]
		},
		{
			"id": "476207262",
			"visible": "true",
			"meta": {
				"alt_name": "Downtown Line Stage 2",
				"colour": "#0354A6",
				"layer": "-2",
				"name": "Downtown Line MRT",
				"railway": "subway",
				"ref": "DTL"
			},
			"coords": [
				[
					1.3911737,
					103.7552645
				],
				[
					1.3924275,
					103.75493
				],
				[
					1.3924831,
					103.7549145
				],
				[
					1.3925371,
					103.7548959
				],
				[
					1.3930146,
					103.754722
				],
				[
					1.3930422,
					103.754712
				],
				[
					1.3930689,
					103.7547038
				],
				[
					1.3930982,
					103.7546983
				],
				[
					1.3931275,
					103.7546945
				],
				[
					1.3945318,
					103.7546332
				],
				[
					1.3946684,
					103.7546421
				],
				[
					1.3948026,
					103.7546604
				],
				[
					1.3949202,
					103.7546799
				],
				[
					1.3950378,
					103.7547112
				],
				[
					1.3951669,
					103.7547518
				],
				[
					1.3952881,
					103.7548081
				],
				[
					1.3955227,
					103.7549286
				],
				[
					1.3960864,
					103.7552644
				],
				[
					1.3961719,
					103.7553206
				],
				[
					1.3962573,
					103.7553609
				],
				[
					1.3964282,
					103.7554298
				]
			]
		},
		{
			"id": "476207263",
			"visible": "true",
			"meta": {
				"alt_name": "Downtown Line Stage 2",
				"colour": "#0354A6",
				"layer": "-2",
				"name": "Downtown Line MRT",
				"railway": "subway",
				"ref": "DTL",
				"tunnel": "yes"
			},
			"coords": [
				[
					1.3964282,
					103.7554298
				],
				[
					1.3983944,
					103.7561453
				]
			]
		},
		{
			"id": "476207264",
			"visible": "true",
			"meta": {
				"alt_name": "Downtown Line Stage 2",
				"colour": "#0354A6",
				"layer": "-2",
				"name": "Downtown Line MRT",
				"railway": "subway",
				"ref": "DTL"
			},
			"coords": [
				[
					1.3983944,
					103.7561453
				],
				[
					1.3986747,
					103.7562321
				],
				[
					1.3987941,
					103.7562556
				],
				[
					1.3989165,
					103.7562672
				],
				[
					1.3994,
					103.7562837
				],
				[
					1.3994963,
					103.7562912
				],
				[
					1.3995926,
					103.7563077
				],
				[
					1.3997376,
					103.7563483
				],
				[
					1.3998826,
					103.7563974
				],
				[
					1.4002067,
					103.7565351
				],
				[
					1.4003481,
					103.7565752
				],
				[
					1.4004895,
					103.7566066
				],
				[
					1.4007776,
					103.7566593
				],
				[
					1.4014397,
					103.7567675
				],
				[
					1.4023042,
					103.7569398
				]
			]
		},
		{
			"id": "516878101",
			"visible": "true",
			"meta": {
				"alt_name": "Downtown Line Stage 2",
				"colour": "#0354A6",
				"layer": "-1",
				"name": "Downtown Line MRT",
				"railway": "subway",
				"ref": "DTL",
				"tunnel": "yes"
			},
			"coords": [
				[
					1.4023042,
					103.7569398
				],
				[
					1.402562,
					103.7569912
				]
			]
		},
		{
			"id": "520182999",
			"visible": "true",
			"meta": {
				"alt_name": "Downtown Line Stage 2",
				"colour": "#0354A6",
				"layer": "-2",
				"name": "Downtown Line MRT",
				"railway": "subway",
				"ref": "DTL",
				"tunnel": "yes"
			},
			"coords": [
				[
					1.3801214,
					103.7612914
				],
				[
					1.3811005,
					103.7607894
				],
				[
					1.3829791,
					103.7596952
				],
				[
					1.383457,
					103.7594299
				],
				[
					1.383674,
					103.7592698
				],
				[
					1.384073,
					103.7588707
				],
				[
					1.3849147,
					103.7580222
				],
				[
					1.3867485,
					103.7566103
				],
				[
					1.3884168,
					103.7559579
				],
				[
					1.3897381,
					103.7555973
				],
				[
					1.3911737,
					103.7552645
				]
			]
		}
	],
	"stops": [
		{
			"meta": {
				"name": "Bukit Panjang",
				"name:en": "Bukit Panjang",
				"name:zh": "武吉班让",
				"network": "MRT",
				"note": "Bukit Panjang (DTL)",
				"operator": "SBS",
				"public_transport": "station",
				"railway": "station",
				"ref": "DT1"
			},
			"coord": [
				1.3785927,
				103.7620837
			]
		},
		{
			"meta": {
				"name": "Cashew",
				"name:en": "Cashew",
				"name:zh": "凯秀",
				"network": "MRT",
				"note": "Cashew (DTL)",
				"operator": "SBS",
				"public_transport": "station",
				"railway": "station",
				"ref": "DT2"
			},
			"coord": [
				1.3697501,
				103.7645133
			]
		},
		{
			"meta": {
				"name": "Hillview",
				"name:en": "Hillview",
				"name:zh": "山景",
				"network": "MRT",
				"note": "Hillview (DTL)",
				"operator": "SBS",
				"public_transport": "station",
				"railway": "station",
				"ref": "DT3"
			},
			"coord": [
				1.3624405,
				103.7670842
			]
		},
		{
			"meta": {
				"name": "Beauty World",
				"name:en": "Beauty World",
				"name:zh": "美世界",
				"network": "MRT",
				"public_transport": "station",
				"railway": "station",
				"ref": "DT5"
			},
			"coord": [
				1.3416523,
				103.775935
			]
		},
		{
			"meta": {
				"name": "King Albert Park",
				"name:en": "King Albert Park",
				"name:zh": "阿尔柏王园",
				"network": "MRT",
				"public_transport": "station",
				"railway": "station",
				"ref": "DT6"
			},
			"coord": [
				1.3356818,
				103.7841492
			]
		},
		{
			"meta": {
				"name": "Sixth Avenue",
				"name:en": "Sixth Avenue",
				"name:zh": "第六道",
				"network": "MRT",
				"public_transport": "station",
				"railway": "station",
				"ref": "DT7"
			},
			"coord": [
				1.3305875,
				103.7972287
			]
		},
		{
			"meta": {
				"name": "Tan Kah Kee",
				"name:en": "Tan Kah Kee",
				"name:zh": "陈嘉庚",
				"network": "MRT",
				"public_transport": "station",
				"railway": "station",
				"ref": "DT8"
			},
			"coord": [
				1.3259616,
				103.8070218
			]
		},
		{
			"meta": {
				"name": "Stevens",
				"name:en": "Stevens",
				"name:zh": "史蒂芬",
				"network": "MRT",
				"public_transport": "station",
				"railway": "station",
				"ref": "DT10;TE11"
			},
			"coord": [
				1.3202201,
				103.8254214
			]
		},
		{
			"meta": {
				"name": "Botanic Gardens",
				"name:en": "Botanic Gardens",
				"name:hi": "பூ மலை",
				"name:ms": "Botanic Gardens",
				"name:ta": "பூ மலை",
				"name:zh": "植物园",
				"network": "MRT",
				"public_transport": "station",
				"railway": "station",
				"ref": "CC19;DT9",
				"station": "subway",
				"wheelchair": "yes"
			},
			"coord": [
				1.322585,
				103.8157246
			]
		},
		{
			"meta": {
				"name": "Newton",
				"name:en": "Newton",
				"name:zh": "纽顿",
				"network": "MRT",
				"public_transport": "station",
				"railway": "station",
				"ref": "NS21;DT11",
				"state": "proposed",
				"station": "subway"
			},
			"coord": [
				1.3129596,
				103.8388638
			]
		},
		{
			"meta": {
				"name": "Little India",
				"name:en": "Little India",
				"name:zh": "小印度",
				"network": "MRT",
				"public_transport": "station",
				"railway": "station",
				"ref": "NE7;DT12",
				"state": "proposed",
				"station": "subway"
			},
			"coord": [
				1.3065714,
				103.8492986
			]
		},
		{
			"meta": {
				"name": "Rochor",
				"name:en": "Rochor",
				"name:zh": "梧槽",
				"network": "MRT",
				"public_transport": "station",
				"railway": "station",
				"ref": "DT13"
			},
			"coord": [
				1.3039839,
				103.8526118
			]
		},
		{
			"meta": {
				"name": "Bugis",
				"name:en": "Bugis",
				"name:zh": "武吉士",
				"network": "MRT",
				"public_transport": "station",
				"railway": "station",
				"ref": "EW12;DT14",
				"station": "subway",
				"wheelchair": "limited"
			},
			"coord": [
				1.3005303,
				103.8560949
			]
		},
		{
			"meta": {
				"name": "Promenade",
				"name:en": "Promenade",
				"name:hi": "புரொமனெட்",
				"name:ms": "Promenade",
				"name:zh": "宝门廊",
				"network": "MRT",
				"public_transport": "station",
				"railway": "station",
				"ref": "CC4;DT15",
				"station": "subway"
			},
			"coord": [
				1.2927806,
				103.8610839
			]
		},
		{
			"meta": {
				"name": "Bayfront",
				"name:en": "Bayfront",
				"name:hi": "பேஃபிரண்ட்",
				"name:ms": "Bayfront",
				"name:zh": "海湾舫",
				"network": "MRT",
				"public_transport": "station",
				"railway": "station",
				"ref": "CE1;DT16",
				"station": "subway",
				"wikidata": "Q1106644"
			},
			"coord": [
				1.2825349,
				103.8597296
			]
		},
		{
			"meta": {
				"name": "Downtown",
				"name:en": "Downtown",
				"name:zh": "市中心",
				"network": "MRT",
				"public_transport": "station",
				"railway": "station",
				"ref": "DT17",
				"station": "subway"
			},
			"coord": [
				1.2791912,
				103.8533448
			]
		},
		{
			"meta": {
				"name": "Telok Ayer",
				"name:en": "Telok Ayer",
				"name:zh": "直落亚逸",
				"network": "MRT",
				"public_transport": "station",
				"railway": "station",
				"ref": "DT18",
				"station": "subway"
			},
			"coord": [
				1.2821231,
				103.848744
			]
		},
		{
			"meta": {
				"name": "Chinatown",
				"name:en": "Chinatown",
				"name:zh": "牛车水",
				"network": "MRT",
				"public_transport": "station",
				"railway": "station",
				"ref": "NE4;DT19",
				"station": "subway"
			},
			"coord": [
				1.2850195,
				103.8440033
			]
		},
		{
			"meta": {
				"name": "MacPherson",
				"name:en": "MacPherson",
				"name:hi": "மெக்பர்சன்",
				"name:ms": "MacPherson",
				"name:zh": "麦波申",
				"network": "MRT",
				"public_transport": "station",
				"railway": "station",
				"ref": "CC10;DT26",
				"state": "proposed",
				"station": "subway"
			},
			"coord": [
				1.3265672,
				103.8903059
			]
		},
		{
			"meta": {
				"name": "Tampines",
				"name:en": "Tampines",
				"name:zh": "淡滨尼",
				"network": "MRT",
				"public_transport": "station",
				"railway": "station",
				"ref": "EW2;DT32",
				"station": "subway",
				"wheelchair": "yes"
			},
			"coord": [
				1.3533737,
				103.9450844
			]
		},
		{
			"meta": {
				"name": "Expo",
				"name:en": "Expo",
				"name:zh": "博览",
				"network": "MRT",
				"operator": "SMRT & SBS Transit",
				"public_transport": "station",
				"railway": "station",
				"ref": "CG1;DT35",
				"station": "subway"
			},
			"coord": [
				1.3352828,
				103.9619775
			]
		}
	]
}